[{"OBJECT_NAME":"LEMUR-2-ARIANNA","OBJECT_ID":"2025-009CU","EPOCH":"2026-03-09T17:46:47.419968","MEAN_MOTION":15.00881954,"ECCENTRICITY":0.00046401,"INCLINATION":97.6996,"RA_OF_ASC_NODE":151.0445,"ARG_OF_PERICENTER":147.3928,"MEAN_ANOMALY":212.7583,"EPHEMERIS_TYPE":0,"CLASSIFICATION_TYPE":"U","NORAD_CAT_ID":62699,"ELEMENT_SET_NO":999,"REV_AT_EPOCH":6263,"BSTAR":0.00071790312,"MEAN_MOTION_DOT":9.084e-5,"MEAN_MOTION_DDOT":0},{"OBJECT_NAME":"STARLINK-34027","OBJECT_ID":"2025-098L","EPOCH":"2026-03-09T22:26:25.938816","MEAN_MOTION":14.98334092,"ECCENTRICITY":0.00024299,"INCLINATION":70.0009,"RA_OF_ASC_NODE":273.6539,"ARG_OF_PERICENTER":265.762,"MEAN_ANOMALY":94.3262,"EPHEMERIS_TYPE":0,"CLASSIFICATION_TYPE":"U","NORAD_CAT_ID":63936,"ELEMENT_SET_NO":999,"REV_AT_EPOCH":4659,"BSTAR":0.00014169291,"MEAN_MOTION_DOT":1.598e-5,"MEAN_MOTION_DDOT":0}]
